NORAD_CAT_ID,OBJECT_NAME,OBJECT_TYPE,EPOCH,MEAN_MOTION,ECCENTRICITY,INCLINATION,RA_OF_ASC_NODE,ARG_OF_PERICENTER,MEAN_ANOMALY,BSTAR,MEAN_MOTION_DOT,MEAN_MOTION_DDOT,TLE_LINE0,TLE_LINE1,TLE_LINE2,SEMIMAJOR_AXIS,PERIOD,APOGEE,PERIGEE,DECAYED
49149.0,STARLINK-3053,PAYLOAD,2023-03-08 18:21:17,14.98337643,0.0002718,69.9988,180.1926,263.9129,96.172,6.1139e-05,6.37e-06,0.0,0 STARLINK-3053,1 49149U 21082V   23067.76479049  .00000637  00000-0  61139-4 0  9994,2 49149  69.9988 180.1926 0002718 263.9129  96.1720 14.98337643 82873,6950.169,96.107,573.923,570.145,0.0
49149.0,STARLINK-3053,PAYLOAD,2023-03-09 00:45:51,14.98325799,0.0002171,69.9989,179.5192,267.154,92.9371,5.8324e-06,-2.3e-07,0.0,0 STARLINK-3053,1 49149U 21082V   23068.03184201 -.00000023  00000-0  58324-5 0  9991,2 49149  69.9989 179.5192 0002171 267.1540  92.9371 14.98325799 82917,6950.206,96.107,573.58,570.562,0.0
49149.0,STARLINK-3053,PAYLOAD,2023-03-09 13:34:55,14.9832965,0.0002943,69.9999,178.173,260.1301,99.9526,0.0001429,1.612e-05,0.0,0 STARLINK-3053,1 49149U 21082V   23068.56591547  .00001612  00000-0  14290-3 0  9990,2 49149  69.9999 178.1730 0002943 260.1301  99.9526 14.98329650 82993,6950.194,96.107,574.104,570.014,0.0
49149.0,STARLINK-3053,PAYLOAD,2023-03-10 00:47:50,14.98338385,0.0003546,69.9983,176.9948,270.6616,89.4137,0.00037447,4.379e-05,0.0,0 STARLINK-3053,1 49149U 21082V   23069.03322000  .00004379  00000-0  37447-3 0  9991,2 49149  69.9983 176.9948 0003546 270.6616  89.4137 14.98338385 83064,6950.167,96.106,574.496,569.567,0.0
49149.0,STARLINK-3053,PAYLOAD,2023-03-10 10:24:40,14.98324992,0.000299,70.0005,175.9877,273.4608,86.6209,0.00010656,1.179e-05,0.0,0 STARLINK-3053,1 49149U 21082V   23069.43379688  .00001179  00000-0  10656-3 0  9997,2 49149  70.0005 175.9877 0002990 273.4608  86.6209 14.98324992 83121,6950.208,96.107,574.151,569.995,0.0
49149.0,STARLINK-3053,PAYLOAD,2023-03-10 16:49:11,14.98335037,0.0002912,69.9998,175.3115,267.3644,92.7182,0.00018214,2.081e-05,0.0,0 STARLINK-3053,1 49149U 21082V   23069.70082752  .00002081  00000-0  18214-3 0  9991,2 49149  69.9998 175.3115 0002912 267.3644  92.7182 14.98335037 83168,6950.177,96.107,574.066,570.018,0.0
49149.0,STARLINK-3053,PAYLOAD,2023-03-11 07:14:25,14.98322829,0.0002713,69.9997,173.7974,269.1468,90.938,4.8219e-05,4.82e-06,0.0,0 STARLINK-3053,1 49149U 21082V   23070.30168013  .00000482  00000-0  48219-4 0  9996,2 49149  69.9997 173.7974 0002713 269.1468  90.9380 14.98322829 83250,6950.215,96.107,573.966,570.194,0.0
49149.0,STARLINK-3053,PAYLOAD,2023-03-11 10:26:41,14.98321789,0.0002716,70.0011,173.4615,270.6433,89.4415,2.4182e-05,1.96e-06,0.0,0 STARLINK-3053,1 49149U 21082V   23070.43520190  .00000196  00000-0  24182-4 0  9993,2 49149  70.0011 173.4615 0002716 270.6433  89.4415 14.98321789 83268,6950.218,96.108,573.971,570.196,0.0
49149.0,STARLINK-3053,PAYLOAD,2023-03-11 16:51:13,14.98327203,0.000284,70.0006,172.7879,259.2643,100.8197,-2.1938e-05,-3.55e-06,0.0,0 STARLINK-3053,1 49149U 21082V   23070.70223887 -.00000355  00000-0 -21938-4 0  9991,2 49149  70.0006 172.7879 0002840 259.2643 100.8197 14.98327203 83307,6950.202,96.107,574.04,570.093,0.0
49149.0,STARLINK-3053,PAYLOAD,2023-03-12 07:16:25,14.98332766,0.0003187,69.9998,171.2722,268.5096,91.5698,0.00015704,1.781e-05,0.0,0 STARLINK-3053,1 49149U 21082V   23071.30307026  .00001781  00000-0  15704-3 0  9991,2 49149  69.9998 171.2722 0003187 268.5096  91.5698 14.98332766 83408,6950.184,96.107,574.264,569.834,0.0
49149.0,STARLINK-3053,PAYLOAD,2023-03-12 10:28:41,14.9833989,0.0002979,69.9998,170.9378,274.362,85.7198,0.00013884,1.564e-05,0.0,0 STARLINK-3053,1 49149U 21082V   23071.43658648  .00001564  00000-0  13884-3 0  9990,2 49149  69.9998 170.9378 0002979 274.3620  85.7198 14.98339890 83424,6950.162,96.106,574.098,569.957,0.0
49149.0,STARLINK-3053,PAYLOAD,2023-03-12 13:40:56,14.98359818,0.0002102,70.0004,170.6003,249.1455,110.9479,-9.7803e-05,-1.26e-05,0.0,0 STARLINK-3053,1 49149U 21082V   23071.57009573 -.00001260  00000-0 -97803-4 0  9991,2 49149  70.0004 170.6003 0002102 249.1455 110.9479 14.98359818 83437,6950.101,96.105,573.427,570.505,0.0
49149.0,STARLINK-3053,PAYLOAD,2023-03-12 16:53:12,14.98355058,0.0002879,70.0016,170.2642,268.4981,91.5848,0.00047522,5.585e-05,0.0,0 STARLINK-3053,1 49149U 21082V   23071.70361713  .00005585  00000-0  47522-3 0  9997,2 49149  70.0016 170.2642 0002879 268.4981  91.5848 14.98355058 83463,6950.115,96.105,573.981,569.979,0.0
49149.0,STARLINK-3053,PAYLOAD,2023-03-13 05:42:18,14.98322039,0.000347,69.999,168.9156,270.7927,89.2835,7.6138e-05,8.15e-06,0.0,0 STARLINK-3053,1 49149U 21082V   23072.23771640  .00000815  00000-0  76138-4 0  9997,2 49149  69.9990 168.9156 0003470 270.7927  89.2835 14.98322039 83541,6950.218,96.108,574.494,569.671,0.0
49149.0,STARLINK-3053,PAYLOAD,2023-03-14 10:32:43,14.98334605,0.0002953,70.0008,165.8884,270.5668,89.5152,-8.6661e-05,-1.127e-05,0.0,0 STARLINK-3053,1 49149U 21082V   23073.43939455 -.00001127  00000-0 -86661-4 0  9991,2 49149  70.0008 165.8884 0002953 270.5668  89.5152 14.98334605 83720,6950.179,96.107,574.096,569.991,0.0
49149.0,STARLINK-3053,PAYLOAD,2023-03-14 12:08:51,14.98338729,0.000285,70.0003,165.7194,266.9863,93.097,-4.2284e-05,-5.98e-06,0.0,0 STARLINK-3053,1 49149U 21082V   23073.50615045 -.00000598  00000-0 -42284-4 0  9999,2 49149  70.0003 165.7194 0002850 266.9863  93.0970 14.98338729 83729,6950.166,96.106,574.012,570.05,0.0
49149.0,STARLINK-3053,PAYLOAD,2023-03-14 23:21:47,14.98354655,0.0003123,69.9993,164.5395,289.4489,70.6332,-7.2793e-05,-9.62e-06,0.0,0 STARLINK-3053,1 49149U 21082V   23073.97346074 -.00000962  00000-0 -72793-4 0  9996,2 49149  69.9993 164.5395 0003123 289.4489  70.6332 14.98354655 83800,6950.117,96.105,574.152,569.811,0.0
49149.0,STARLINK-3053,PAYLOAD,2023-03-15 12:10:51,14.98336211,0.0003268,69.9999,163.1937,277.8946,82.1842,0.00023717,2.738e-05,0.0,0 STARLINK-3053,1 49149U 21082V   23074.50754293  .00002738  00000-0  23717-3 0  9994,2 49149  69.9999 163.1937 0003268 277.8946  82.1842 14.98336211 83882,6950.174,96.107,574.31,569.767,0.0
49149.0,STARLINK-3053,PAYLOAD,2023-03-16 10:36:45,14.98318404,0.0003189,69.9998,160.8371,270.3038,89.7756,4.6959e-06,-3.7e-07,0.0,0 STARLINK-3053,1 49149U 21082V   23075.44219744 -.00000037  00000-0  46959-5 0  9991,2 49149  69.9998 160.8371 0003189 270.3038  89.7756 14.98318404 84027,6950.229,96.108,574.31,569.877,0.0
49149.0,STARLINK-3053,PAYLOAD,2023-03-16 17:01:17,14.98329762,0.0002915,69.9997,160.1622,267.9512,92.1314,5.9604e-06,-2.2e-07,0.0,0 STARLINK-3053,1 49149U 21082V   23075.70923068 -.00000022  00000-0  59604-5 0  9996,2 49149  69.9997 160.1622 0002915 267.9512  92.1314 14.98329762 84064,6950.194,96.107,574.085,570.033,0.0
49149.0,STARLINK-3053,PAYLOAD,2023-03-17 09:02:39,14.98314018,0.0002959,70.0007,158.4816,266.1959,93.8861,-0.00014042,-1.767e-05,0.0,0 STARLINK-3053,1 49149U 21082V   23076.37684682 -.00001767  00000-0 -14042-3 0  9999,2 49149  70.0007 158.4816 0002959 266.1959  93.8861 14.98314018 84162,6950.242,96.108,574.164,570.051,0.0
49149.0,STARLINK-3053,PAYLOAD,2023-03-17 12:14:55,14.9831893,0.0003131,69.9993,158.144,267.1415,92.9386,-0.00011968,-1.52e-05,0.0,0 STARLINK-3053,1 49149U 21082V   23076.51036430 -.00001520  00000-0 -11968-3 0  9998,2 49149  69.9993 158.1440 0003131 267.1415  92.9386 14.98318930 84174,6950.227,96.108,574.268,569.916,0.0
49149.0,STARLINK-3053,PAYLOAD,2023-03-18 10:40:47,14.9832813,0.000308,69.9992,155.7869,264.3972,95.6836,0.00032923,3.837e-05,0.0,0 STARLINK-3053,1 49149U 21082V   23077.44499649  .00003837  00000-0  32923-3 0  9991,2 49149  69.9992 155.7869 0003080 264.3972  95.6836 14.98328130 84321,6950.199,96.107,574.204,569.923,0.0
49149.0,STARLINK-3053,PAYLOAD,2023-03-18 15:29:11,14.98342723,0.0003055,70.0009,155.2828,262.6259,97.4553,0.00058773,6.929e-05,0.0,0 STARLINK-3053,1 49149U 21082V   23077.64527324  .00006929  00000-0  58773-3 0  9991,2 49149  70.0009 155.2828 0003055 262.6259  97.4553 14.98342723 84357,6950.154,96.106,574.142,569.895,0.0
49149.0,STARLINK-3053,PAYLOAD,2023-03-18 21:53:44,14.98341076,0.0002894,70.0018,154.6096,258.5541,101.5293,0.00054292,6.393e-05,0.0,0 STARLINK-3053,1 49149U 21082V   23077.91231533  .00006393  00000-0  54292-3 0  9992,2 49149  70.0018 154.6096 0002894 258.5541 101.5293 14.98341076 84386,6950.159,96.106,574.035,570.012,0.0
49149.0,STARLINK-3053,PAYLOAD,2023-03-19 13:55:03,14.98353057,0.000296,70.002,152.9267,263.6108,96.4714,0.00051124,6.016e-05,0.0,0 STARLINK-3053,1 49149U 21082V   23078.57990655  .00006016  00000-0  51124-3 0  9995,2 49149  70.0020 152.9267 0002960 263.6108  96.4714 14.98353057 84483,6950.122,96.106,574.044,569.929,0.0
49149.0,STARLINK-3053,PAYLOAD,2023-03-20 04:20:16,14.98342015,0.0002516,70.003,151.4139,259.1795,100.9081,3.2398e-05,2.94e-06,0.0,0 STARLINK-3053,1 49149U 21082V   23079.18074526  .00000294  00000-0  32398-4 0  9998,2 49149  70.0030 151.4139 0002516 259.1795 100.9081 14.98342015 84586,6950.156,96.106,573.769,570.272,0.0
49149.0,STARLINK-3053,PAYLOAD,2023-03-20 10:44:49,14.98337836,0.0002913,69.9997,150.7387,261.522,98.5609,-2.2245e-05,-3.58e-06,0.0,0 STARLINK-3053,1 49149U 21082V   23079.44779059 -.00000358  00000-0 -22245-4 0  9993,2 49149  69.9997 150.7387 0002913 261.5220  98.5609 14.98337836 84621,6950.169,96.106,574.058,570.009,0.0
49149.0,STARLINK-3053,PAYLOAD,2023-03-20 12:20:57,14.98336408,0.0002942,69.9996,150.5703,261.0866,98.996,-4.7056e-05,-6.55e-06,0.0,0 STARLINK-3053,1 49149U 21082V   23079.51455109 -.00000655  00000-0 -47056-4 0  9995,2 49149  69.9996 150.5703 0002942 261.0866  98.9960 14.98336408 84621,6950.173,96.107,574.083,569.993,0.0
49149.0,STARLINK-3053,PAYLOAD,2023-03-20 13:57:05,14.98335097,0.0002963,69.9996,150.4021,260.7221,99.3603,-6.7443e-05,-8.98e-06,0.0,0 STARLINK-3053,1 49149U 21082V   23079.58131178 -.00000898  00000-0 -67443-4 0  9990,2 49149  69.9996 150.4021 0002963 260.7221  99.3603 14.98335097 84630,6950.177,96.107,574.101,569.983,0.0
